NOAA 1 [-]              
1 04793U 70106A   18334.18533738 -.00000052  00000-0 -42604-4 0  9993
2 04793 101.7334  40.1453 0031486 313.7017 107.6237 12.53987577195718
NOAA 2 (ITOS-D) [-]     
1 06235U 72082A   18334.56281988 -.00000041  00000-0  23773-4 0  9993
2 06235 101.7651 297.6991 0004321  41.3291  72.7499 12.53110239110009
NOAA 3 [-]              
1 06920U 73086A   18334.54013726 -.00000019  00000-0  19315-3 0  9991
2 06920 102.0207 300.8545 0006233 164.1011 305.1619 12.40346790 40436
NOAA 4 [-]              
1 07529U 74089A   18334.55492699 -.00000022  00000-0  14545-3 0  9996
2 07529 101.7224 299.5785 0009154  71.5499  37.8243 12.53123543 14596
NOAA 5 [-]              
1 09057U 76077A   18334.51292829 -.00000023  00000-0  15999-3 0  9997
2 09057 101.9021 305.7495 0010181  19.0200  93.5167 12.37756823913742
TIROS N [P]             
1 11060U 78096A   18333.74407219 -.00000010  00000-0  16905-4 0  9997
2 11060  98.8215  27.6792 0009678 262.7662  97.2413 14.18216333288182
NOAA 6 [P]              
1 11416U 79057A   18334.57933909  .00000038  00000-0  29917-4 0  9998
2 11416  98.6243 324.2306 0011312 116.0493 244.1857 14.33506704 56206
NOAA 7 [-]              
1 12553U 81059A   18334.57740772 -.00000013  00000-0  16851-4 0  9997
2 12553  99.0937 332.3143 0011335 185.3542 283.2041 14.17250668934607
NOAA 8 [-]              
1 13923U 83022A   18334.51995102  .00000013  00000-0  22407-4 0  9997
2 13923  98.5626 318.2914 0016052  45.7543 314.4953 14.28658926857769
NOAA 9 [P]              
1 15427U 84123A   18334.49046788  .00000017  00000-0  31211-4 0  9992
2 15427  98.8666 279.0422 0013892 243.9404 224.6071 14.16053035753565
NOAA 10 [-]             
1 16969U 86073A   18334.56628345  .00000001  00000-0  17393-4 0  9991
2 16969  98.4707 331.9748 0012657 149.5803 318.8105 14.28057615676277
NOAA 11 [-]             
1 19531U 88089A   18334.57492801 -.00000025  00000-0  83435-5 0  9993
2 19531  98.4765  14.0502 0010340 314.8394  45.1939 14.15233871557915
NOAA 12 [-]             
1 21263U 91032A   18334.57688957 -.00000020  00000-0  94686-5 0  9994
2 21263  98.5280 350.4323 0013953 164.1112 196.0509 14.25881112432456
NOAA 13 [-]             
1 22739U 93050A   18334.51850833  .00000002  00000-0  23083-4 0  9994
2 22739  98.4929   2.8377 0010673  94.3445 265.8948 14.12718237304453
NOAA 14 [-]             
1 23455U 94089A   18334.55143277 -.00000026  00000-0  84512-5 0  9996
2 23455  98.6266  38.0565 0010531  79.5638 280.6722 14.14123298233935
NOAA 15 [B]             
1 25338U 98030A   18334.56960298  .00000025  00000-0  29351-4 0  9996
2 25338  98.7616 351.0500 0011501 103.3399 256.9063 14.25885484 68734
NOAA 16 [-]             
1 26536U 00055A   18334.50348954 -.00000015  00000-0  15580-4 0  9999
2 26536  98.8005  45.0679 0009578 251.3751 108.6381 14.13217698937949
NOAA 17 [-]             
1 27453U 02032A   18334.58066479  .00000007  00000-0  21123-4 0  9992
2 27453  98.5101 285.7311 0012818  85.9240 274.3405 14.25026545854457
NOAA 18 [B]             
1 28654U 05018A   18334.58355983 -.00000036  00000-0  57604-5 0  9991
2 28654  99.1259  13.2623 0014536  24.0917 336.0931 14.12391045697277
NOAA 19 [+]             
1 33591U 09005A   18334.55590631  .00000030  00000-0  41848-4 0  9990
2 33591  99.1616 316.0421 0013314 217.1117 142.9135 14.12320586505652
SUOMI NPP [+]           
1 37849U 11061A   18334.81976319  .00000016  00000-0  28344-4 0  9995
2 37849  98.7160 270.9123 0001617  83.1311 329.8569 14.19550257367513
NOAA 20 [+]             
1 43013U 17073A   18334.49160374  .00000009  00000-0  25259-4 0  9998
2 43013  98.7416 270.4574 0001389  95.1739 264.9595 14.19553211 53507
